start=new Date('2022-06-10T00:00:00.000Z').valueOf();
sats=[{"SEMIMAJOR_AXIS":"6925.349","OBJECT_NAME":"STARLINK-2616","CENTER_NAME":"EARTH","APOAPSIS":"548.695","MEAN_ANOMALY":"298.9097","EPOCH":"2022-06-09T14:04:55.813440","SITE":"AFETR","ECCENTRICITY":"0.00021380","TIME_SYSTEM":"UTC","TLE_LINE1":"1 48695U 21044BK  22160.58675710 -.00000776  00000-0 -33213-4 0  9991","CLASSIFICATION_TYPE":"U","MEAN_ELEMENT_THEORY":"SGP4","FILE":"3488214","MEAN_MOTION_DOT":"-0.00000776","MEAN_MOTION_DDOT":"0.0000000000000","ARG_OF_PERICENTER":"61.2107","EPHEMERIS_TYPE":"0","BSTAR":"-0.00003321300000","OBJECT_ID":"2021-044BK","LAUNCH_DATE":"2021-05-26","REV_AT_EPOCH":"5784","INCLINATION":"53.0560","NORAD_CAT_ID":"48695","REF_FRAME":"TEME","TLE_LINE2":"2 48695  53.0560 112.8128 0002138  61.2107 298.9097 15.06399738 57846","ELEMENT_SET_NO":"999","OBJECT_TYPE":"PAYLOAD","PERIOD":"95.592","RCS_SIZE":"LARGE","COUNTRY_CODE":"US","GP_ID":"205736614","MEAN_MOTION":"15.06399738","RA_OF_ASC_NODE":"112.8128","PERIAPSIS":"545.734","DECAY_DATE":null},{"RA_OF_ASC_NODE":"117.8471","DECAY_DATE":null,"PERIAPSIS":"545.932","RCS_SIZE":"LARGE","COUNTRY_CODE":"US","GP_ID":"205735869","MEAN_MOTION":"15.06395488","ELEMENT_SET_NO":"999","OBJECT_TYPE":"PAYLOAD","PERIOD":"95.592","INCLINATION":"53.0528","REV_AT_EPOCH":"5777","NORAD_CAT_ID":"48696","REF_FRAME":"TEME","TLE_LINE2":"2 48696  53.0528 117.8471 0001870  59.8551 300.2623 15.06395488 57777","LAUNCH_DATE":"2021-05-26","ARG_OF_PERICENTER":"59.8551","OBJECT_ID":"2021-044BL","BSTAR":"0.00002145500000","EPHEMERIS_TYPE":"0","MEAN_MOTION_DDOT":"0.0000000000000","MEAN_MOTION_DOT":"0.00000038","FILE":"3488214","MEAN_ELEMENT_THEORY":"SGP4","TLE_LINE1":"1 48696U 21044BL  22160.57708322  .00000038  00000-0  21455-4 0  9991","CLASSIFICATION_TYPE":"U","TIME_SYSTEM":"UTC","EPOCH":"2022-06-09T13:50:59.990208","SITE":"AFETR","ECCENTRICITY":"0.00018700","OBJECT_NAME":"STARLINK-2753","CENTER_NAME":"EARTH","MEAN_ANOMALY":"300.2623","APOAPSIS":"548.522","SEMIMAJOR_AXIS":"6925.362"},{"MEAN_ELEMENT_THEORY":"SGP4","FILE":"3489040","TLE_LINE1":"1 48697U 21044BM  22160.60656672 -.00000202  00000-0  53766-5 0  9991","CLASSIFICATION_TYPE":"U","MEAN_MOTION_DDOT":"0.0000000000000","MEAN_MOTION_DOT":"-0.00000202","OBJECT_NAME":"STARLINK-2715","CENTER_NAME":"EARTH","APOAPSIS":"548.835","MEAN_ANOMALY":"297.7200","SEMIMAJOR_AXIS":"6925.367","TIME_SYSTEM":"UTC","EPOCH":"2022-06-09T14:33:27.364608","ECCENTRICITY":"0.00023140","SITE":"AFETR","ELEMENT_SET_NO":"999","OBJECT_TYPE":"PAYLOAD","PERIOD":"95.593","REV_AT_EPOCH":"5777","INCLINATION":"53.0547","REF_FRAME":"TEME","NORAD_CAT_ID":"48697","TLE_LINE2":"2 48697  53.0547 117.6848 0002314  62.4024 297.7200 15.06393960 57778","RA_OF_ASC_NODE":"117.6848","PERIAPSIS":"545.630","DECAY_DATE":null,"RCS_SIZE":"LARGE","MEAN_MOTION":"15.06393960","GP_ID":"205780789","COUNTRY_CODE":"US","LAUNCH_DATE":"2021-05-26","ARG_OF_PERICENTER":"62.4024","EPHEMERIS_TYPE":"0","BSTAR":"0.00000537660000","OBJECT_ID":"2021-044BM"},{"SEMIMAJOR_AXIS":"6923.809","APOAPSIS":"547.062","MEAN_ANOMALY":"126.2198","CENTER_NAME":"EARTH","OBJECT_NAME":"STARLINK-3003","ECCENTRICITY":"0.00020050","SITE":"AFETR","EPOCH":"2022-06-09T22:00:00.999936","TIME_SYSTEM":"UTC","CLASSIFICATION_TYPE":"U","TLE_LINE1":"1 48879U 21059A   22160.91667824 -.01049850  00000-0 -75896-1 0  9992","MEAN_ELEMENT_THEORY":"SGP4","FILE":"3489040","MEAN_MOTION_DOT":"-0.01049850","MEAN_MOTION_DDOT":"0.0000000000000","BSTAR":"-0.07589600000000","EPHEMERIS_TYPE":"0","OBJECT_ID":"2021-059A","ARG_OF_PERICENTER":"92.9541","LAUNCH_DATE":"2021-06-30","TLE_LINE2":"2 48879  97.5137 291.7090 0002005  92.9541 126.2198 15.06902453  1303","NORAD_CAT_ID":"48879","REF_FRAME":"TEME","REV_AT_EPOCH":"130","INCLINATION":"97.5137","PERIOD":"95.560","OBJECT_TYPE":"PAYLOAD","ELEMENT_SET_NO":"999","GP_ID":"205783314","COUNTRY_CODE":"US","MEAN_MOTION":"15.06902453","RCS_SIZE":"LARGE","PERIAPSIS":"544.286","DECAY_DATE":null,"RA_OF_ASC_NODE":"291.7090"},{"MEAN_ELEMENT_THEORY":"SGP4","FILE":"3489040","CLASSIFICATION_TYPE":"U","TLE_LINE1":"1 48880U 21059B   22160.91667824 -.01049334  00000-0 -75977-1 0  9991","MEAN_MOTION_DDOT":"0.0000000000000","MEAN_MOTION_DOT":"-0.01049334","APOAPSIS":"547.244","MEAN_ANOMALY":"134.8185","OBJECT_NAME":"STARLINK-3004","CENTER_NAME":"EARTH","SEMIMAJOR_AXIS":"6923.989","TIME_SYSTEM":"UTC","ECCENTRICITY":"0.00020070","SITE":"AFETR","EPOCH":"2022-06-09T22:00:00.999936","OBJECT_TYPE":"PAYLOAD","PERIOD":"95.564","ELEMENT_SET_NO":"999","NORAD_CAT_ID":"48880","REF_FRAME":"TEME","TLE_LINE2":"2 48880  97.5137 291.7064 0002007  94.0117 134.8185 15.06843662  1307","REV_AT_EPOCH":"130","INCLINATION":"97.5137","DECAY_DATE":null,"PERIAPSIS":"544.464","RA_OF_ASC_NODE":"291.7064","RCS_SIZE":"LARGE","COUNTRY_CODE":"US","GP_ID":"205783064","MEAN_MOTION":"15.06843662","LAUNCH_DATE":"2021-06-30","ARG_OF_PERICENTER":"94.0117","EPHEMERIS_TYPE":"0","BSTAR":"-0.07597700000000","OBJECT_ID":"2021-059B"},{"TIME_SYSTEM":"UTC","SITE":"AFETR","ECCENTRICITY":"0.00020480","EPOCH":"2022-06-09T22:00:00.999936","MEAN_ANOMALY":"178.0129","APOAPSIS":"546.334","OBJECT_NAME":"STARLINK-3005","CENTER_NAME":"EARTH","SEMIMAJOR_AXIS":"6923.051","MEAN_MOTION_DDOT":"0.0000000000000","MEAN_MOTION_DOT":"-0.01047868","MEAN_ELEMENT_THEORY":"SGP4","FILE":"3489040","CLASSIFICATION_TYPE":"U","TLE_LINE1":"1 48881U 21059C   22160.91667824 -.01047868  00000-0 -75234-1 0  9998","LAUNCH_DATE":"2021-06-30","ARG_OF_PERICENTER":"71.8253","OBJECT_ID":"2021-059C","BSTAR":"-0.07523400000000","EPHEMERIS_TYPE":"0","PERIAPSIS":"543.498","DECAY_DATE":null,"RA_OF_ASC_NODE":"291.7367","RCS_SIZE":"LARGE","COUNTRY_CODE":"US","GP_ID":"205781812","MEAN_MOTION":"15.07149860","OBJECT_TYPE":"PAYLOAD","PERIOD":"95.545","ELEMENT_SET_NO":"999","REF_FRAME":"TEME","NORAD_CAT_ID":"48881","TLE_LINE2":"2 48881  97.5137 291.7367 0002048  71.8253 178.0129 15.07149860  1301","INCLINATION":"97.5137","REV_AT_EPOCH":"130"},{"LAUNCH_DATE":"2021-09-14","EPHEMERIS_TYPE":"0","BSTAR":"-0.00004093900000","OBJECT_ID":"2021-082B","ARG_OF_PERICENTER":"268.8039","RA_OF_ASC_NODE":"106.4729","DECAY_DATE":null,"PERIAPSIS":"570.078","MEAN_MOTION":"14.98319159","GP_ID":"205757235","COUNTRY_CODE":"US","RCS_SIZE":"LARGE","ELEMENT_SET_NO":"999","PERIOD":"96.108","OBJECT_TYPE":"PAYLOAD","REV_AT_EPOCH":"4188","INCLINATION":"69.9966","TLE_LINE2":"2 49131  69.9966 106.4729 0002897 268.8039  91.2788 14.98319159 41882","REF_FRAME":"TEME","NORAD_CAT_ID":"49131","TIME_SYSTEM":"UTC","EPOCH":"2022-06-09T13:55:30.937152","SITE":"AFWTR","ECCENTRICITY":"0.00028970","CENTER_NAME":"EARTH","OBJECT_NAME":"STARLINK-3096","MEAN_ANOMALY":"91.2788","APOAPSIS":"574.105","SEMIMAJOR_AXIS":"6950.226","MEAN_MOTION_DDOT":"0.0000000000000","MEAN_MOTION_DOT":"-0.00000581","MEAN_ELEMENT_THEORY":"SGP4","FILE":"3488965","TLE_LINE1":"1 49131U 21082B   22160.58021918 -.00000581  00000-0 -40939-4 0  9991","CLASSIFICATION_TYPE":"U"},{"MEAN_MOTION_DOT":"0.00000788","MEAN_MOTION_DDOT":"0.0000000000000","CLASSIFICATION_TYPE":"U","TLE_LINE1":"1 49132U 21082C   22160.88003664  .00000788  00000-0  73793-4 0  9994","MEAN_ELEMENT_THEORY":"SGP4","FILE":"3489040","ECCENTRICITY":"0.00030190","SITE":"AFWTR","EPOCH":"2022-06-09T21:07:15.165696","TIME_SYSTEM":"UTC","SEMIMAJOR_AXIS":"6950.183","MEAN_ANOMALY":"86.5090","APOAPSIS":"574.146","OBJECT_NAME":"STARLINK-3090","CENTER_NAME":"EARTH","RCS_SIZE":"LARGE","COUNTRY_CODE":"US","GP_ID":"205782842","MEAN_MOTION":"14.98333339","PERIAPSIS":"569.949","DECAY_DATE":null,"RA_OF_ASC_NODE":"145.6988","REF_FRAME":"TEME","NORAD_CAT_ID":"49132","TLE_LINE2":"2 49132  69.9977 145.6988 0003019 273.5723  86.5090 14.98333339 40942","INCLINATION":"69.9977","REV_AT_EPOCH":"4094","OBJECT_TYPE":"PAYLOAD","PERIOD":"96.107","ELEMENT_SET_NO":"999","ARG_OF_PERICENTER":"273.5723","OBJECT_ID":"2021-082C","BSTAR":"0.00007379300000","EPHEMERIS_TYPE":"0","LAUNCH_DATE":"2021-09-14"},{"EPOCH":"2022-06-09T16:11:59.352864","SITE":"AFWTR","ECCENTRICITY":"0.00029830","TIME_SYSTEM":"UTC","SEMIMAJOR_AXIS":"6950.148","OBJECT_NAME":"STARLINK-3077","CENTER_NAME":"EARTH","MEAN_ANOMALY":"90.6827","APOAPSIS":"574.086","MEAN_MOTION_DOT":"0.00003314","MEAN_MOTION_DDOT":"0.0000000000000","TLE_LINE1":"1 49133U 21082D   22160.67499251  .00003314  00000-0  28526-3 0  9994","CLASSIFICATION_TYPE":"U","MEAN_ELEMENT_THEORY":"SGP4","FILE":"3489040","ARG_OF_PERICENTER":"269.3990","BSTAR":"0.00028526000000","EPHEMERIS_TYPE":"0","OBJECT_ID":"2021-082D","LAUNCH_DATE":"2021-09-14","RCS_SIZE":"LARGE","MEAN_MOTION":"14.98344460","GP_ID":"205783593","COUNTRY_CODE":"US","RA_OF_ASC_NODE":"146.2251","PERIAPSIS":"569.940","DECAY_DATE":null,"INCLINATION":"69.9984","REV_AT_EPOCH":"4091","NORAD_CAT_ID":"49133","REF_FRAME":"TEME","TLE_LINE2":"2 49133  69.9984 146.2251 0002983 269.3990  90.6827 14.98344460 40917","ELEMENT_SET_NO":"999","OBJECT_TYPE":"PAYLOAD","PERIOD":"96.106"},{"ARG_OF_PERICENTER":"276.7079","BSTAR":"0.00004981800000","EPHEMERIS_TYPE":"0","OBJECT_ID":"2021-082E","LAUNCH_DATE":"2021-09-14","REF_FRAME":"TEME","NORAD_CAT_ID":"49134","TLE_LINE2":"2 49134  69.9992 145.5576 0003409 276.7079  83.3692 14.98322583 42152","INCLINATION":"69.9992","REV_AT_EPOCH":"4215","OBJECT_TYPE":"PAYLOAD","PERIOD":"96.107","ELEMENT_SET_NO":"999","RCS_SIZE":"LARGE","GP_ID":"205757234","COUNTRY_CODE":"US","MEAN_MOTION":"14.98322583","PERIAPSIS":"569.711","DECAY_DATE":null,"RA_OF_ASC_NODE":"145.5576","SEMIMAJOR_AXIS":"6950.216","MEAN_ANOMALY":"83.3692","APOAPSIS":"574.450","OBJECT_NAME":"STARLINK-3078","CENTER_NAME":"EARTH","ECCENTRICITY":"0.00034090","SITE":"AFWTR","EPOCH":"2022-06-09T22:29:40.197120","TIME_SYSTEM":"UTC","CLASSIFICATION_TYPE":"U","TLE_LINE1":"1 49134U 21082E   22160.93727080  .00000501  00000-0  49818-4 0  9991","FILE":"3488965","MEAN_ELEMENT_THEORY":"SGP4","MEAN_MOTION_DOT":"0.00000501","MEAN_MOTION_DDOT":"0.0000000000000"}];
